C/2021 A7 (NEOWISE),e,78.1547,154.5001,356.0057,2220,0.0000094,0.99911450,0.0000,07/15.1810/2021,2000,g 10.0,4.0
# From MPEC 2023-KD6
C/2021 A9 (PANSTARRS),h,12/01.6804/2023,158.0171,314.8398,211.4630,1.001959,7.760069,2000,6.0,4.0
# From MPEC 2021-N06
C/2021 A10 (NEOWISE),e,151.9325,188.6923,82.3760,87.66452,0.0012008,0.98559837,0.0000,03/15.0343/2021,2000,g 19.0,4.0
# From MPEC 2022-L66
C/2021 B2 (PANSTARRS),e,38.0847,120.5175,334.9835,364.1225,0.0001419,0.99310166,0.0000,05/04.3936/2021,2000,g 14.0,4.0
# From MPEC 2021-N06
C/2021 B3 (NEOWISE),e,119.4809,67.2847,293.5368,34.44292,0.0048759,0.93725773,4.0690,06/23.0/2023,2000,g 13.5,4.0
# From MPEC 2023-KD6
C/2021 C1 (Rankin),e,143.0447,186.8955,336.2247,7296,0.0000016,0.99952339,0.0000,12/06.8867/2020,2000,g 11.5,4.0
# From MPEC 2021-U31
P/2021 C2 (PANSTARRS),e,21.9362,66.4599,78.7194,9.534802,0.0334762,0.48743189,28.4352,06/23.0/2023,2000,g 12.0,4.0
# From MPEC 2021-N06
C/2021 C3 (Catalina),e,122.1658,181.9233,357.0682,61.81624,0.0020279,0.96320961,1.7458,06/23.0/2023,2000,g 14.0,4.0
# From MPEC 2022-M88
C/2021 C4 (ATLAS),e,132.8531,194.2769,320.1874,100291,0.0000000,0.99995512,0.0000,01/17.0031/2021,2000,g  9.0,4.0
# From MPEC 2023-M14
C/2021 C5 (PANSTARRS),e,50.7821,323.6800,270.9233,2269,0.0000091,0.99857116,0.0000,02/11.0722/2023,2000,g 12.0,4.0
# From MPEC 2022-YB4
C/2021 C6 (Lemmon),h,11/13.3338/2021,164.6220,332.2042,203.6779,1.001084,3.275005,2000,12.0,4.0
# From MPEC 2022-F14
C/2021 D1 (SWAN),e,31.4228,311.2297,72.3009,100.4519,0.0009790,0.99101494,0.0000,02/27.7531/2021,2000,g 13.0,4.0
# From MPEC 2023-J29
C/2021 D2 (ZTF),h,02/03.9770/2022,83.8126,305.6763,125.0273,1.001689,2.946275,2000,9.0,4.0
# From MPEC 2022-UY9
A/2021 E2,e,167.4884,190.8182,342.3751,223.3614,0.0002953,0.98977226,0.0000,12/10.3394/2020,2000,g 15.0,2.0
# From MPEC 2023-J29
C/2021 E3 (ZTF),h,06/11.8927/2022,112.5481,104.4772,228.8484,1.000825,1.777332,2000,8.5,4.0
# From MPEC 2023-M14
A/2021 E4,e,116.3611,171.1694,48.2625,582.4240,0.0000701,0.99197139,0.0000,04/25.1622/2022,2000,g 13.5,22.0
# From MPEC 2022-QD9
C/2021 F1 (Lemmon-PANSTARRS),e,107.3263,203.4537,146.8307,229.1504,0.0002841,0.99565391,0.0000,04/06.8273/2022,2000,g 13.5,4.0
# From MPEC 2021-J72
C/2021 G1 (Leonard),e,131.5479,270.6987,107.4509,73.84604,0.0015531,0.95364147,1.0889,06/23.0/2023,2000,g 14.0,4.0
# From MPEC 2023-MA9
C/2021 G2 (ATLAS),e,48.4741,221.0957,343.3203,8073,0.0000014,0.99938297,0.0000,09/09.5735/2024,2000,g  5.5,4.0
# From MPEC 2022-X67
C/2021 G3 (PANSTARRS),h,10/18.1402/2021,102.8733,147.4042,10.5978,1.000102,5.180173,2000,10.5,4.0
# From MPEC 2021-Y10
P/2021 HS (PANSTARRS),e,12.1621,262.3798,46.1218,4.194578,0.1147286,0.80981629,78.6812,06/23.0/2023,2000,g 22.0,4.0
# From MPEC 2022-C56
C/2021 J1 (Maury-Attard),e,92.7204,88.3697,147.3184,26.37450,0.0072766,0.93400876,6.2114,06/23.0/2023,2000,g 15.5,4.0
# From MPEC 2023-KD6
C/2021 J2 (PANSTARRS),e,156.2132,23.3353,172.0140,117.2868,0.0007759,0.95988651,0.4957,06/23.0/2023,2000,g 12.0,4.0
# From MPEC 2021-S45
P/2021 J3 (ATLAS),e,14.5311,111.1453,125.9966,8.928903,0.0369409,0.44918054,53.5728,06/23.0/2023,2000,g  7.0,4.0
# From MPEC 2022-O08
C/2021 K1 (ATLAS),e,16.2753,140.9067,184.2781,12.66719,0.0218617,0.80272730,17.0483,06/23.0/2023,2000,g 11.0,4.0
# From MPEC 2022-O01
C/2021 K2 (MASTER),h,09/09.4734/2021,100.8622,282.2552,343.3621,1.001089,5.467893,2000,8.0,4.0
# From MPEC 2022-L66
C/2021 K3 (Catalina),h,02/03.1699/2022,134.7842,114.4633,182.0551,1.003449,5.230035,2000,10.0,4.0
# From MPEC 2021-W31
P/2021 L2 (Leonard),e,21.0681,266.6570,51.5086,4.048908,0.1209755,0.52109050,84.5352,06/23.0/2023,2000,g 17.0,4.0
# From MPEC 2023-M14
C/2021 L3 (Borisov),h,02/14.1685/2022,78.5760,344.9799,91.6140,1.003569,8.458052,2000,10.1,4.0
# From MPEC 2022-TA0
P/2021 N1 (ZTF),e,11.4966,301.1616,21.2279,2.978068,0.1917795,0.67634310,143.1859,06/23.0/2023,2000,g 19.0,4.0
# From MPEC 2023-M14
P/2021 N2 (Fuls),e,13.0613,221.7350,177.4585,6.938387,0.0539282,0.45257930,31.6064,06/23.0/2023,2000,g 10.8,4.0
# From MPEC 2022-YB4
C/2021 N3 (PANSTARRS),e,26.7411,337.4935,304.7598,151.2261,0.0005300,0.96219529,0.5500,06/23.0/2023,2000,g  8.5,4.0
# From MPEC 2022-A21
C/2021 O1 (Nishimura),e,27.5884,41.6216,74.3919,2384,0.0000085,0.99967064,0.0000,08/14.0372/2021,2000,g 10.5,4.0
# From MPEC 2022-L66
C/2021 O3 (PANSTARRS),h,04/21.0526/2022,56.7943,189.0113,299.9660,1.000059,0.286943,2000,10.5,4.0
# From MPEC 2022-CN4
C/2021 P1 (PANSTARRS),e,51.6367,359.6777,40.4662,2534,0.0000077,0.99827334,0.0000,06/02.4003/2022,2000,g 11.0,4.0
# From MPEC 2023-M14
C/2021 P2 (PANSTARRS),e,150.0635,32.0802,76.6995,2690,0.0000071,0.99811583,0.0000,01/22.7782/2023,2000,g 12.0,4.0
# From MPEC 2021-W31
P/2021 P3 (PANSTARRS),e,27.1616,358.2398,334.0920,4.412365,0.1063401,0.33905251,80.1694,06/23.0/2023,2000,g 14.0,4.0
# From MPEC 2023-A50
C/2021 P4 (ATLAS),e,56.3116,348.0896,175.8084,308.7605,0.0001817,0.99650126,0.0000,07/30.3509/2022,2000,g  9.5,4.0
# From MPEC 2023-E68
P/2021 PE20 (ATLAS),e,20.0086,99.6313,210.4670,3.745720,0.1359569,0.67029947,101.4327,06/23.0/2023,2000,g 17.0,4.0
# From MPEC 2023-FK0
C/2021 Q3 (ATLAS),e,77.7594,307.9135,114.1028,75.64558,0.0014981,0.93119366,0.7681,06/23.0/2023,2000,g  8.0,4.0
# From MPEC 2023-M14
C/2021 Q4 (Fuls),h,06/10.6517/2023,71.4752,183.3319,147.0128,1.003215,7.564678,2000,10.6,4.0
# From MPEC 2022-C56
P/2021 Q5 (ATLAS),e,10.7389,239.7489,180.9257,3.286681,0.1654123,0.62454959,109.4028,06/23.0/2023,2000,g 15.0,4.0
# From MPEC 2023-CD7
C/2021 Q6 (PANSTARRS),e,161.8468,133.5375,140.9697,175382,0.0000000,0.99995035,0.0000,03/24.0910/2024,2000,g  6.0,4.0
# From MPEC 2023-FK0
C/2021 QM45 (PANSTARRS),e,22.8216,354.5913,72.8242,366.7148,0.0001403,0.99243668,0.0000,08/13.5125/2022,2000,g 11.0,4.0
# From MPEC 2022-X67
P/2021 R1 (PANSTARRS),e,5.5191,143.3268,220.3319,8.333028,0.0409732,0.41366011,22.6838,06/23.0/2023,2000,g 11.0,4.0
# From MPEC 2022-X67
C/2021 R2 (PANSTARRS),e,134.4820,16.2974,32.4494,2661,0.0000072,0.99725119,0.0000,12/26.9759/2021,2000,g  7.5,4.0
# From MPEC 2021-W31
P/2021 R3 (PANSTARRS),e,19.9293,304.1997,2.7685,3.772145,0.1345307,0.33109194,101.9829,06/23.0/2023,2000,g 16.0,4.0
# From MPEC 2021-W31
P/2021 R4 (Wierzchos),e,21.0344,321.2626,56.6941,5.622353,0.0739311,0.58601017,45.6108,06/23.0/2023,2000,g 16.0,4.0
# From MPEC 2022-Y15
P/2021 R5 (Rankin),e,7.8546,219.9571,167.4498,4.793932,0.0939001,0.30666408,49.4407,06/23.0/2023,2000,g 12.0,4.0
# From MPEC 2021-W31
P/2021 R6 (Groeller),e,34.9248,176.1174,220.8001,6.280872,0.0626144,0.59344232,37.4990,06/23.0/2023,2000,g 14.5,4.0
# From MPEC 2022-X67
C/2021 R7 (PANSTARRS),e,158.8529,170.1506,140.2822,873.1578,0.0000382,0.99352839,0.0000,04/16.5600/2021,2000,g 10.5,4.0
# From MPEC 2021-Y10
P/2021 R8 (Sheppard),e,2.2034,167.0268,190.8396,3.017966,0.1879890,0.29341575,117.2110,06/23.0/2023,2000,g 18.5,4.0
# From MPEC 2023-J29
C/2021 S1 (ATLAS),h,03/01.1519/2022,52.0696,299.8773,148.2002,1.002074,6.119515,2000,7.0,4.0
# From MPEC 2023-M14
C/2021 S3 (PANSTARRS),h,02/14.7268/2024,58.5334,215.6220,6.8665,1.000126,1.320063,2000,8.5,4.0
# From MPEC 2023-E68
C/2021 S4 (Tsuchinshan),e,17.4797,5.4951,72.8286,164.6933,0.0004663,0.95937963,359.9100,06/23.0/2023,2000,g  6.5,4.0
# From MPEC 2022-OB6
C/2021 T1 (Lemmon),e,140.3553,56.8284,51.5450,1377,0.0000193,0.99777897,0.0000,10/14.1390/2021,2000,g 12.5,4.0
# From MPEC 2023-A50
C/2021 T2 (Fuls),h,06/07.9234/2022,117.5367,223.2329,263.5988,1.000381,1.247655,2000,12.0,4.0
# From MPEC 2023-MA9
C/2021 T4 (Lemmon),e,160.7768,257.8841,329.8203,8484,0.0000013,0.99982518,0.0000,07/31.5335/2023,2000,g  7.5,4.0
# From MPEC 2022-ED3
P/2021 U1 (Wierzchos),e,30.5538,246.7718,145.1250,8.524012,0.0396039,0.71297924,24.9456,06/23.0/2023,2000,g 14.5,4.0
# From MPEC 2022-L66
P/2021 U3 (Attard-Maury),e,69.9597,75.0934,335.2487,4.192972,0.1147945,0.54982489,69.5797,06/23.0/2023,2000,g 15.5,4.0
# From MPEC 2021-W31
C/2021 U4 (Leonard),e,152.8829,241.8091,237.3049,44.87400,0.0032788,0.96014882,1.7969,06/23.0/2023,2000,g 17.0,4.0
# From MPEC 2022-WQ9
C/2021 U5 (Catalina),e,39.0492,182.7520,321.4398,216.7604,0.0003088,0.98910217,0.0000,01/26.5809/2022,2000,g 13.0,4.0
# From MPEC 2022-CN4
C/2021 V1 (Rankin),e,71.4540,207.6535,195.1364,611.7477,0.0000651,0.99507291,0.0000,04/30.4479/2022,2000,g 13.0,4.0
# From MPEC 2023-KD6
P/2021 V2 (Fuls),e,12.6942,232.2801,259.8332,9.062937,0.0361244,0.61418686,5.5118,06/23.0/2023,2000,g 10.0,4.0
# From MPEC 2023-MA9
C/2021 X1 (Maury-Attard),h,05/27.3583/2023,140.1153,10.5897,334.6055,1.001266,3.233639,2000,7.0,4.0
# From MPEC 2023-A50
A/2021 X2,h,07/08.0414/2022,137.1614,228.8225,193.2824,1.000788,2.994374,2000,16.0,2.0
# From MPEC 2023-MA9
C/2021 Y1 (ATLAS),h,04/30.7115/2023,77.1908,244.7705,245.8197,1.000855,2.032398,2000,7.0,4.0
# From MPEC 2022-YN2
C/2022 A1 (Sarneczky),e,116.5102,285.5236,201.2248,350.0032,0.0001505,0.99641969,0.0000,01/31.1192/2022,2000,g 18.0,4.0
# From MPEC 2023-MA9
C/2022 A2 (PANSTARRS),h,02/18.2759/2023,108.1450,171.5811,88.3718,1.000470,1.735355,2000,9.5,4.0
# From MPEC 2023-M14
C/2022 A3 (Lemmon-ATLAS),e,88.3447,325.4817,234.8472,905.8085,0.0000362,0.99591143,0.0000,09/28.8475/2023,2000,g 10.9,4.0
# From MPEC 2022-K19
P/2022 B1 (Wierzchos),e,10.9899,148.8396,325.4742,5.466407,0.0771172,0.65314037,37.2188,06/23.0/2023,2000,g 16.5,4.0
# From MPEC 2022-YB4
A/2022 B3,e,132.0510,286.1826,150.6890,842.8417,0.0000403,0.99561145,0.0000,01/17.5180/2022,2000,g 16.5,2.0
# From MPEC 2022-GA9
C/2022 B4 (Bok),e,20.0438,340.6445,152.9373,380.4703,0.0001328,0.99637644,0.0000,01/29.9151/2022,2000,g 21.0,4.0
# From MPEC 2023-J29
P/2022 BV9 (Lemmon),e,11.9331,337.3026,16.2437,4.361289,0.1082136,0.23470942,105.1861,06/23.0/2023,2000,g  9.5,4.0
# From MPEC 2023-J29
P/2022 C1 (PANSTARRS),e,4.7622,113.1350,9.3368,7.223135,0.0507710,0.44832609,30.2412,06/23.0/2023,2000,g 12.0,4.0
# From MPEC 2022-OB6
P/2022 C2 (PANSTARRS),e,9.9805,135.2638,89.2773,6.041582,0.0663710,0.44216455,21.2784,06/23.0/2023,2000,g 12.5,4.0
# From MPEC 2022-OB6
